[{"OBJECT_NAME":"TRANSPORTER-14 OBJECT V","OBJECT_ID":"2025-135V","EPOCH":"2026-03-09T17:31:27.373152","MEAN_MOTION":15.23374465,"ECCENTRICITY":0.00011439,"INCLINATION":97.4496,"RA_OF_ASC_NODE":185.0128,"ARG_OF_PERICENTER":144.8208,"MEAN_ANOMALY":215.3104,"EPHEMERIS_TYPE":0,"CLASSIFICATION_TYPE":"U","NORAD_CAT_ID":64547,"ELEMENT_SET_NO":999,"REV_AT_EPOCH":3977,"BSTAR":0.00049387386,"MEAN_MOTION_DOT":0.0001168,"MEAN_MOTION_DDOT":0},{"OBJECT_NAME":"OBJECT X","OBJECT_ID":"2025-313X","EPOCH":"2026-03-09T22:11:10.492800","MEAN_MOTION":15.22236742,"ECCENTRICITY":0.00140663,"INCLINATION":97.4034,"RA_OF_ASC_NODE":145.2465,"ARG_OF_PERICENTER":355.6443,"MEAN_ANOMALY":4.4668,"EPHEMERIS_TYPE":0,"CLASSIFICATION_TYPE":"U","NORAD_CAT_ID":67269,"ELEMENT_SET_NO":999,"REV_AT_EPOCH":1085,"BSTAR":0.0006925154,"MEAN_MOTION_DOT":0.00015915,"MEAN_MOTION_DDOT":0}]
